start=new Date('2022-05-09T00:00:00.000Z').valueOf();
sats=[{"TLE_LINE2":"2 49142  70.0000 186.6504 0003394 282.7806 167.5414 15.14981794  3641","REV_AT_EPOCH":"364","ECCENTRICITY":"0.00033940","OBJECT_NAME":"STARLINK-3042","PERIAPSIS":"518.694","ELEMENT_SET_NO":"999","REF_FRAME":"TEME","OBJECT_ID":"2021-082N","SEMIMAJOR_AXIS":"6899.171","APOAPSIS":"523.377","EPOCH":"2022-05-08T14:00:01.000224","FILE":"3435746","COUNTRY_CODE":"US","SITE":"AFWTR","CLASSIFICATION_TYPE":"U","NORAD_CAT_ID":"49142","MEAN_ELEMENT_THEORY":"SGP4","RCS_SIZE":"LARGE","INCLINATION":"70.0000","GP_ID":"203017025","MEAN_MOTION_DOT":"-0.00718756","PERIOD":"95.051","RA_OF_ASC_NODE":"186.6504","CENTER_NAME":"EARTH","OBJECT_TYPE":"PAYLOAD","BSTAR":"-0.04123700000000","DECAY_DATE":null,"TIME_SYSTEM":"UTC","TLE_LINE1":"1 49142U 21082N   22128.58334491 -.00718756  00000-0 -41237-1 0  9999","MEAN_MOTION_DDOT":"0.0000000000000","LAUNCH_DATE":"2021-09-14","MEAN_ANOMALY":"167.5414","MEAN_MOTION":"15.14981794","ARG_OF_PERICENTER":"282.7806","EPHEMERIS_TYPE":"0"},{"ELEMENT_SET_NO":"999","PERIAPSIS":"574.835","OBJECT_NAME":"STARLINK-3109","ECCENTRICITY":"0.00031910","REV_AT_EPOCH":"357","TLE_LINE2":"2 49143  70.0005 206.4418 0003191 277.4692   0.9613 14.96715708  3573","FILE":"3435746","APOAPSIS":"579.274","EPOCH":"2022-05-08T14:00:01.000224","SEMIMAJOR_AXIS":"6955.189","OBJECT_ID":"2021-082P","REF_FRAME":"TEME","SITE":"AFWTR","COUNTRY_CODE":"US","MEAN_ELEMENT_THEORY":"SGP4","NORAD_CAT_ID":"49143","CLASSIFICATION_TYPE":"U","CENTER_NAME":"EARTH","PERIOD":"96.211","MEAN_MOTION_DOT":"0.00013273","RA_OF_ASC_NODE":"206.4418","GP_ID":"203018277","INCLINATION":"70.0005","RCS_SIZE":"LARGE","TLE_LINE1":"1 49143U 21082P   22128.58334491  .00013273  00000-0  11654-2 0  9991","TIME_SYSTEM":"UTC","DECAY_DATE":null,"OBJECT_TYPE":"PAYLOAD","BSTAR":"0.00116540000000","MEAN_MOTION":"14.96715708","MEAN_MOTION_DDOT":"0.0000000000000","LAUNCH_DATE":"2021-09-14","MEAN_ANOMALY":"0.9613","EPHEMERIS_TYPE":"0","ARG_OF_PERICENTER":"277.4692"},{"COUNTRY_CODE":"US","SITE":"AFWTR","NORAD_CAT_ID":"49144","CLASSIFICATION_TYPE":"U","MEAN_ELEMENT_THEORY":"SGP4","REV_AT_EPOCH":"3615","TLE_LINE2":"2 49144  70.0011 226.3006 0003405 277.0678 290.6259 14.98363047 36154","ECCENTRICITY":"0.00034050","OBJECT_NAME":"STARLINK-3100","PERIAPSIS":"569.589","ELEMENT_SET_NO":"999","REF_FRAME":"TEME","OBJECT_ID":"2021-082Q","SEMIMAJOR_AXIS":"6950.091","APOAPSIS":"574.322","EPOCH":"2022-05-08T22:00:00.999936","FILE":"3436082","MEAN_ANOMALY":"290.6259","LAUNCH_DATE":"2021-09-14","MEAN_MOTION_DDOT":"0.0000000000000","MEAN_MOTION":"14.98363047","ARG_OF_PERICENTER":"277.0678","EPHEMERIS_TYPE":"0","RCS_SIZE":"LARGE","INCLINATION":"70.0011","GP_ID":"203027334","MEAN_MOTION_DOT":"-0.00043562","PERIOD":"96.105","RA_OF_ASC_NODE":"226.3006","CENTER_NAME":"EARTH","OBJECT_TYPE":"PAYLOAD","BSTAR":"-0.00366250000000","DECAY_DATE":null,"TIME_SYSTEM":"UTC","TLE_LINE1":"1 49144U 21082Q   22128.91667824 -.00043562  00000-0 -36625-2 0  9999"},{"TLE_LINE2":"2 49145  70.0001 186.6962 0003124 273.8711 301.9360 15.12181468  3653","REV_AT_EPOCH":"365","OBJECT_NAME":"STARLINK-3119","ECCENTRICITY":"0.00031240","ELEMENT_SET_NO":"999","PERIAPSIS":"527.393","REF_FRAME":"TEME","SEMIMAJOR_AXIS":"6907.686","OBJECT_ID":"2021-082R","APOAPSIS":"531.709","EPOCH":"2022-05-08T14:00:01.000224","FILE":"3435746","SITE":"AFWTR","COUNTRY_CODE":"US","NORAD_CAT_ID":"49145","CLASSIFICATION_TYPE":"U","MEAN_ELEMENT_THEORY":"SGP4","INCLINATION":"70.0001","GP_ID":"203016782","RCS_SIZE":"LARGE","PERIOD":"95.227","MEAN_MOTION_DOT":"-0.00717892","RA_OF_ASC_NODE":"186.6962","CENTER_NAME":"EARTH","OBJECT_TYPE":"PAYLOAD","BSTAR":"-0.04456500000000","DECAY_DATE":null,"TLE_LINE1":"1 49145U 21082R   22128.58334491 -.00717892  00000-0 -44565-1 0  9999","TIME_SYSTEM":"UTC","LAUNCH_DATE":"2021-09-14","MEAN_ANOMALY":"301.9360","MEAN_MOTION_DDOT":"0.0000000000000","MEAN_MOTION":"15.12181468","ARG_OF_PERICENTER":"273.8711","EPHEMERIS_TYPE":"0"},{"BSTAR":"0.00308770000000","OBJECT_TYPE":"PAYLOAD","DECAY_DATE":null,"TLE_LINE1":"1 49146U 21082S   22128.58334491  .00035413  00000-0  30877-2 0  9992","TIME_SYSTEM":"UTC","GP_ID":"203017525","INCLINATION":"69.9981","RCS_SIZE":"LARGE","PERIOD":"96.212","MEAN_MOTION_DOT":"0.00035413","RA_OF_ASC_NODE":"206.4376","CENTER_NAME":"EARTH","ARG_OF_PERICENTER":"280.8544","EPHEMERIS_TYPE":"0","LAUNCH_DATE":"2021-09-14","MEAN_MOTION_DDOT":"0.0000000000000","MEAN_ANOMALY":"23.7182","MEAN_MOTION":"14.96697405","REF_FRAME":"TEME","SEMIMAJOR_AXIS":"6955.246","OBJECT_ID":"2021-082S","EPOCH":"2022-05-08T14:00:01.000224","APOAPSIS":"579.251","FILE":"3435746","TLE_LINE2":"2 49146  69.9981 206.4376 0003077 280.8544  23.7182 14.96697405  3573","REV_AT_EPOCH":"357","OBJECT_NAME":"STARLINK-3116","ECCENTRICITY":"0.00030770","PERIAPSIS":"574.971","ELEMENT_SET_NO":"999","CLASSIFICATION_TYPE":"U","NORAD_CAT_ID":"49146","MEAN_ELEMENT_THEORY":"SGP4","SITE":"AFWTR","COUNTRY_CODE":"US"},{"PERIOD":"95.045","RA_OF_ASC_NODE":"186.6509","MEAN_MOTION_DOT":"-0.00718039","CENTER_NAME":"EARTH","INCLINATION":"70.0001","GP_ID":"203017778","RCS_SIZE":"LARGE","DECAY_DATE":null,"TLE_LINE1":"1 49147U 21082T   22128.58334491 -.00718039  00000-0 -41086-1 0  9990","TIME_SYSTEM":"UTC","OBJECT_TYPE":"PAYLOAD","BSTAR":"-0.04108600000000","MEAN_MOTION":"15.15073810","LAUNCH_DATE":"2021-09-14","MEAN_ANOMALY":"186.9457","MEAN_MOTION_DDOT":"0.0000000000000","EPHEMERIS_TYPE":"0","ARG_OF_PERICENTER":"281.6898","OBJECT_NAME":"STARLINK-3071","ECCENTRICITY":"0.00033380","PERIAPSIS":"518.454","ELEMENT_SET_NO":"999","REV_AT_EPOCH":"364","TLE_LINE2":"2 49147  70.0001 186.6509 0003338 281.6898 186.9457 15.15073810  3643","APOAPSIS":"523.059","EPOCH":"2022-05-08T14:00:01.000224","FILE":"3435746","REF_FRAME":"TEME","SEMIMAJOR_AXIS":"6898.891","OBJECT_ID":"2021-082T","SITE":"AFWTR","COUNTRY_CODE":"US","MEAN_ELEMENT_THEORY":"SGP4","NORAD_CAT_ID":"49147","CLASSIFICATION_TYPE":"U"},{"APOAPSIS":"579.058","EPOCH":"2022-05-08T20:00:01.000224","FILE":"3435771","REF_FRAME":"TEME","SEMIMAJOR_AXIS":"6955.110","OBJECT_ID":"2021-082U","OBJECT_NAME":"STARLINK-3048","ECCENTRICITY":"0.00029950","PERIAPSIS":"574.892","ELEMENT_SET_NO":"999","TLE_LINE2":"2 49148  69.9986 205.8084 0002995 278.4012 318.9644 14.96741458 37780","REV_AT_EPOCH":"3778","MEAN_ELEMENT_THEORY":"SGP4","NORAD_CAT_ID":"49148","CLASSIFICATION_TYPE":"U","SITE":"AFWTR","COUNTRY_CODE":"US","DECAY_DATE":null,"TLE_LINE1":"1 49148U 21082U   22128.83334491 -.00048016  00000-0 -42131-2 0  9993","TIME_SYSTEM":"UTC","OBJECT_TYPE":"PAYLOAD","BSTAR":"-0.00421310000000","PERIOD":"96.209","RA_OF_ASC_NODE":"205.8084","MEAN_MOTION_DOT":"-0.00048016","CENTER_NAME":"EARTH","INCLINATION":"69.9986","GP_ID":"203019577","RCS_SIZE":"LARGE","EPHEMERIS_TYPE":"0","ARG_OF_PERICENTER":"278.4012","MEAN_MOTION":"14.96741458","LAUNCH_DATE":"2021-09-14","MEAN_ANOMALY":"318.9644","MEAN_MOTION_DDOT":"0.0000000000000"},{"MEAN_ANOMALY":"312.8334","LAUNCH_DATE":"2021-09-14","MEAN_MOTION_DDOT":"0.0000000000000","MEAN_MOTION":"14.98311223","ARG_OF_PERICENTER":"283.1410","EPHEMERIS_TYPE":"0","RCS_SIZE":"LARGE","GP_ID":"203017282","INCLINATION":"70.0002","PERIOD":"96.108","MEAN_MOTION_DOT":"0.00018726","RA_OF_ASC_NODE":"227.1270","CENTER_NAME":"EARTH","OBJECT_TYPE":"PAYLOAD","BSTAR":"0.00157370000000","DECAY_DATE":null,"TIME_SYSTEM":"UTC","TLE_LINE1":"1 49149U 21082V   22128.58334491  .00018726  00000-0  15737-2 0  9991","COUNTRY_CODE":"US","SITE":"AFWTR","NORAD_CAT_ID":"49149","CLASSIFICATION_TYPE":"U","MEAN_ELEMENT_THEORY":"SGP4","TLE_LINE2":"2 49149  70.0002 227.1270 0003478 283.1410 312.8334 14.98311223  3584","REV_AT_EPOCH":"358","ECCENTRICITY":"0.00034780","OBJECT_NAME":"STARLINK-3053","PERIAPSIS":"569.699","ELEMENT_SET_NO":"999","REF_FRAME":"TEME","OBJECT_ID":"2021-082V","SEMIMAJOR_AXIS":"6950.251","EPOCH":"2022-05-08T14:00:01.000224","APOAPSIS":"574.533","FILE":"3435746"},{"TLE_LINE2":"2 49150  70.0018 227.1272 0003323 284.3403 337.3027 14.98331308  3575","REV_AT_EPOCH":"357","PERIAPSIS":"569.744","ELEMENT_SET_NO":"999","OBJECT_NAME":"STARLINK-3104","ECCENTRICITY":"0.00033230","SEMIMAJOR_AXIS":"6950.189","OBJECT_ID":"2021-082W","REF_FRAME":"TEME","FILE":"3435746","APOAPSIS":"574.363","EPOCH":"2022-05-08T14:00:01.000224","SITE":"AFWTR","COUNTRY_CODE":"US","NORAD_CAT_ID":"49150","CLASSIFICATION_TYPE":"U","MEAN_ELEMENT_THEORY":"SGP4","GP_ID":"203017026","INCLINATION":"70.0018","RCS_SIZE":"LARGE","CENTER_NAME":"EARTH","PERIOD":"96.107","RA_OF_ASC_NODE":"227.1272","MEAN_MOTION_DOT":"0.00014085","BSTAR":"0.00118580000000","OBJECT_TYPE":"PAYLOAD","TLE_LINE1":"1 49150U 21082W   22128.58334491  .00014085  00000-0  11858-2 0  9997","TIME_SYSTEM":"UTC","DECAY_DATE":null,"LAUNCH_DATE":"2021-09-14","MEAN_ANOMALY":"337.3027","MEAN_MOTION_DDOT":"0.0000000000000","MEAN_MOTION":"14.98331308","ARG_OF_PERICENTER":"284.3403","EPHEMERIS_TYPE":"0"},{"CLASSIFICATION_TYPE":"U","NORAD_CAT_ID":"49151","MEAN_ELEMENT_THEORY":"SGP4","COUNTRY_CODE":"US","SITE":"AFWTR","OBJECT_ID":"2021-082X","SEMIMAJOR_AXIS":"6906.074","REF_FRAME":"TEME","FILE":"3435746","EPOCH":"2022-05-08T14:00:01.000224","APOAPSIS":"530.141","TLE_LINE2":"2 49151  70.0000 186.6704 0003189 275.8153   2.5651 15.12710839  3631","REV_AT_EPOCH":"363","PERIAPSIS":"525.737","ELEMENT_SET_NO":"999","ECCENTRICITY":"0.00031890","OBJECT_NAME":"STARLINK-3102","ARG_OF_PERICENTER":"275.8153","EPHEMERIS_TYPE":"0","LAUNCH_DATE":"2021-09-14","MEAN_ANOMALY":"2.5651","MEAN_MOTION_DDOT":"0.0000000000000","MEAN_MOTION":"15.12710839","BSTAR":"-0.04405500000000","OBJECT_TYPE":"PAYLOAD","TIME_SYSTEM":"UTC","TLE_LINE1":"1 49151U 21082X   22128.58334491 -.00720117  00000-0 -44055-1 0  9994","DECAY_DATE":null,"RCS_SIZE":"LARGE","GP_ID":"203018278","INCLINATION":"70.0000","CENTER_NAME":"EARTH","PERIOD":"95.193","MEAN_MOTION_DOT":"-0.00720117","RA_OF_ASC_NODE":"186.6704"}];
